CCSDS_OMM_VERS = 2.0
CREATION_DATE  = 
ORIGINATOR     = 

OBJECT_NAME    = COSMOS 2242
OBJECT_ID      = 1993-024A
CENTER_NAME    = EARTH
REF_FRAME      = TEME
TIME_SYSTEM    = UTC
MEAN_ELEMENT_THEORY = SGP/SGP4

EPOCH          = 2026-03-20T04:47:58.159680
MEAN_MOTION    = 14.96590356
ECCENTRICITY   = .0014938
INCLINATION    = 82.5152
RA_OF_ASC_NODE = 256.6604
ARG_OF_PERICENTER = 270.2760
MEAN_ANOMALY   = 89.6750

EPHEMERIS_TYPE = 0
CLASSIFICATION_TYPE = U
NORAD_CAT_ID   = 22626
ELEMENT_SET_NO = 999
REV_AT_EPOCH   = 78196
BSTAR          = .14786E-3
MEAN_MOTION_DOT = .1712E-4
MEAN_MOTION_DDOT = 0

CCSDS_OMM_VERS = 2.0
CREATION_DATE  = 
ORIGINATOR     = 

OBJECT_NAME    = SL-16 R/B
OBJECT_ID      = 1993-059B
CENTER_NAME    = EARTH
REF_FRAME      = TEME
TIME_SYSTEM    = UTC
MEAN_ELEMENT_THEORY = SGP/SGP4

EPOCH          = 2026-03-20T03:13:55.596864
MEAN_MOTION    = 14.17233889
ECCENTRICITY   = .0017926
INCLINATION    = 70.9931
RA_OF_ASC_NODE = 349.1016
ARG_OF_PERICENTER = 201.3546
MEAN_ANOMALY   = 158.6832

EPHEMERIS_TYPE = 0
CLASSIFICATION_TYPE = U
NORAD_CAT_ID   = 22803
ELEMENT_SET_NO = 999
REV_AT_EPOCH   = 68101
BSTAR          = .13964E-3
MEAN_MOTION_DOT = .234E-5
MEAN_MOTION_DDOT = 0

CCSDS_OMM_VERS = 2.0
CREATION_DATE  = 
ORIGINATOR     = 

OBJECT_NAME    = ARIANE 40 R/B
OBJECT_ID      = 1993-061H
CENTER_NAME    = EARTH
REF_FRAME      = TEME
TIME_SYSTEM    = UTC
MEAN_ELEMENT_THEORY = SGP/SGP4

EPOCH          = 2026-03-20T04:09:18.570240
MEAN_MOTION    = 14.32866037
ECCENTRICITY   = .000965
INCLINATION    = 98.4896
RA_OF_ASC_NODE = 147.8529
ARG_OF_PERICENTER = 250.3812
MEAN_ANOMALY   = 109.6331

EPHEMERIS_TYPE = 0
CLASSIFICATION_TYPE = U
NORAD_CAT_ID   = 22830
ELEMENT_SET_NO = 999
REV_AT_EPOCH   = 69560
BSTAR          = .75048E-4
MEAN_MOTION_DOT = .162E-5
MEAN_MOTION_DDOT = 0

CCSDS_OMM_VERS = 2.0
CREATION_DATE  = 
ORIGINATOR     = 

OBJECT_NAME    = COSMOS 2278
OBJECT_ID      = 1994-023A
CENTER_NAME    = EARTH
REF_FRAME      = TEME
TIME_SYSTEM    = UTC
MEAN_ELEMENT_THEORY = SGP/SGP4

EPOCH          = 2026-03-20T04:56:59.709696
MEAN_MOTION    = 14.14378506
ECCENTRICITY   = .0008757
INCLINATION    = 71.0540
RA_OF_ASC_NODE = 153.0976
ARG_OF_PERICENTER = 355.2860
MEAN_ANOMALY   = 4.8178

EPHEMERIS_TYPE = 0
CLASSIFICATION_TYPE = U
NORAD_CAT_ID   = 23087
ELEMENT_SET_NO = 999
REV_AT_EPOCH   = 64629
BSTAR          = -.73577E-4
MEAN_MOTION_DOT = -.188E-5
MEAN_MOTION_DDOT = 0

CCSDS_OMM_VERS = 2.0
CREATION_DATE  = 
ORIGINATOR     = 

OBJECT_NAME    = SL-16 R/B
OBJECT_ID      = 1994-023B
CENTER_NAME    = EARTH
REF_FRAME      = TEME
TIME_SYSTEM    = UTC
MEAN_ELEMENT_THEORY = SGP/SGP4

EPOCH          = 2026-03-20T02:33:32.240160
MEAN_MOTION    = 14.15010241
ECCENTRICITY   = .0005507
INCLINATION    = 70.9994
RA_OF_ASC_NODE = 49.0084
ARG_OF_PERICENTER = 275.4509
MEAN_ANOMALY   = 84.5985

EPHEMERIS_TYPE = 0
CLASSIFICATION_TYPE = U
NORAD_CAT_ID   = 23088
ELEMENT_SET_NO = 999
REV_AT_EPOCH   = 64756
BSTAR          = .45706E-4
MEAN_MOTION_DOT = .41E-6
MEAN_MOTION_DDOT = 0

CCSDS_OMM_VERS = 2.0
CREATION_DATE  = 
ORIGINATOR     = 

OBJECT_NAME    = SL-16 R/B
OBJECT_ID      = 1994-074B
CENTER_NAME    = EARTH
REF_FRAME      = TEME
TIME_SYSTEM    = UTC
MEAN_ELEMENT_THEORY = SGP/SGP4

EPOCH          = 2026-03-20T01:37:02.127936
MEAN_MOTION    = 14.79419423
ECCENTRICITY   = .0006605
INCLINATION    = 97.7094
RA_OF_ASC_NODE = 109.4644
ARG_OF_PERICENTER = 174.7822
MEAN_ANOMALY   = 210.9630

EPHEMERIS_TYPE = 0
CLASSIFICATION_TYPE = U
NORAD_CAT_ID   = 23343
ELEMENT_SET_NO = 999
REV_AT_EPOCH   = 68878
BSTAR          = .59794E-4
MEAN_MOTION_DOT = .397E-5
MEAN_MOTION_DDOT = 0

CCSDS_OMM_VERS = 2.0
CREATION_DATE  = 
ORIGINATOR     = 

OBJECT_NAME    = SL-16 R/B
OBJECT_ID      = 1994-077B
CENTER_NAME    = EARTH
REF_FRAME      = TEME
TIME_SYSTEM    = UTC
MEAN_ELEMENT_THEORY = SGP/SGP4

EPOCH          = 2026-03-20T03:42:59.041728
MEAN_MOTION    = 14.15566123
ECCENTRICITY   = .0002479
INCLINATION    = 70.9848
RA_OF_ASC_NODE = 330.4741
ARG_OF_PERICENTER = 200.3574
MEAN_ANOMALY   = 159.7451

EPHEMERIS_TYPE = 0
CLASSIFICATION_TYPE = U
NORAD_CAT_ID   = 23405
ELEMENT_SET_NO = 999
REV_AT_EPOCH   = 61771
BSTAR          = .17679E-3
MEAN_MOTION_DOT = .298E-5
MEAN_MOTION_DDOT = 0

CCSDS_OMM_VERS = 2.0
CREATION_DATE  = 
ORIGINATOR     = 

OBJECT_NAME    = ARIANE 40+ R/B
OBJECT_ID      = 1995-021B
CENTER_NAME    = EARTH
REF_FRAME      = TEME
TIME_SYSTEM    = UTC
MEAN_ELEMENT_THEORY = SGP/SGP4

EPOCH          = 2026-03-20T04:05:19.739040
MEAN_MOTION    = 14.39779426
ECCENTRICITY   = .0007932
INCLINATION    = 98.4478
RA_OF_ASC_NODE = 150.5101
ARG_OF_PERICENTER = 109.2400
MEAN_ANOMALY   = 305.3389

EPHEMERIS_TYPE = 0
CLASSIFICATION_TYPE = U
NORAD_CAT_ID   = 23561
ELEMENT_SET_NO = 999
REV_AT_EPOCH   = 62075
BSTAR          = .86414E-4
MEAN_MOTION_DOT = .228E-5
MEAN_MOTION_DDOT = 0

CCSDS_OMM_VERS = 2.0
CREATION_DATE  = 
ORIGINATOR     = 

OBJECT_NAME    = SL-16 R/B
OBJECT_ID      = 1995-058B
CENTER_NAME    = EARTH
REF_FRAME      = TEME
TIME_SYSTEM    = UTC
MEAN_ELEMENT_THEORY = SGP/SGP4

EPOCH          = 2026-03-20T03:53:45.860640
MEAN_MOTION    = 14.15500722
ECCENTRICITY   = .0010295
INCLINATION    = 71.0221
RA_OF_ASC_NODE = 158.2697
ARG_OF_PERICENTER = 106.4757
MEAN_ANOMALY   = 253.7498

EPHEMERIS_TYPE = 0
CLASSIFICATION_TYPE = U
NORAD_CAT_ID   = 23705
ELEMENT_SET_NO = 999
REV_AT_EPOCH   = 56933
BSTAR          = .32878E-4
MEAN_MOTION_DOT = .17E-6
MEAN_MOTION_DDOT = 0

CCSDS_OMM_VERS = 2.0
CREATION_DATE  = 
ORIGINATOR     = 

OBJECT_NAME    = SL-16 R/B
OBJECT_ID      = 1996-051B
CENTER_NAME    = EARTH
REF_FRAME      = TEME
TIME_SYSTEM    = UTC
MEAN_ELEMENT_THEORY = SGP/SGP4

EPOCH          = 2026-03-20T03:38:34.196352
MEAN_MOTION    = 14.12418434
ECCENTRICITY   = .00142
INCLINATION    = 70.7597
RA_OF_ASC_NODE = 153.0962
ARG_OF_PERICENTER = 131.6009
MEAN_ANOMALY   = 228.6330

EPHEMERIS_TYPE = 0
CLASSIFICATION_TYPE = U
NORAD_CAT_ID   = 24298
ELEMENT_SET_NO = 999
REV_AT_EPOCH   = 52312
BSTAR          = .79152E-4
MEAN_MOTION_DOT = .97E-6
MEAN_MOTION_DDOT = 0

CCSDS_OMM_VERS = 2.0
CREATION_DATE  = 
ORIGINATOR     = 

OBJECT_NAME    = ORBVIEW 2 (SEASTAR)
OBJECT_ID      = 1997-037A
CENTER_NAME    = EARTH
REF_FRAME      = TEME
TIME_SYSTEM    = UTC
MEAN_ELEMENT_THEORY = SGP/SGP4

EPOCH          = 2026-03-20T00:18:06.430752
MEAN_MOTION    = 14.35501918
ECCENTRICITY   = .0002781
INCLINATION    = 98.8585
RA_OF_ASC_NODE = 243.5987
ARG_OF_PERICENTER = 50.2536
MEAN_ANOMALY   = 309.8894

EPHEMERIS_TYPE = 0
CLASSIFICATION_TYPE = U
NORAD_CAT_ID   = 24883
ELEMENT_SET_NO = 999
REV_AT_EPOCH   = 50995
BSTAR          = .92491E-4
MEAN_MOTION_DOT = .219E-5
MEAN_MOTION_DDOT = 0

CCSDS_OMM_VERS = 2.0
CREATION_DATE  = 
ORIGINATOR     = 

OBJECT_NAME    = SL-16 R/B
OBJECT_ID      = 1998-043G
CENTER_NAME    = EARTH
REF_FRAME      = TEME
TIME_SYSTEM    = UTC
MEAN_ELEMENT_THEORY = SGP/SGP4

EPOCH          = 2026-03-19T20:02:33.397728
MEAN_MOTION    = 14.26051996
ECCENTRICITY   = .00096813
INCLINATION    = 98.8272
RA_OF_ASC_NODE = 32.2714
ARG_OF_PERICENTER = 351.5109
MEAN_ANOMALY   = 8.5906

EPHEMERIS_TYPE = 0
CLASSIFICATION_TYPE = U
NORAD_CAT_ID   = 25400
ELEMENT_SET_NO = 999
REV_AT_EPOCH   = 44043
BSTAR          = .36402182E-4
MEAN_MOTION_DOT = .42E-6
MEAN_MOTION_DDOT = 0

