COSMOS 2242             
1 22626U 93024A   26079.19997870  .00001712  00000+0  14786-3 0  9999
2 22626  82.5152 256.6604 0014938 270.2760  89.6750 14.96590356781965
SL-16 R/B               
1 22803U 93059B   26079.13467126  .00000234  00000+0  13964-3 0  9999
2 22803  70.9931 349.1016 0017926 201.3546 158.6832 14.17233889681011
ARIANE 40 R/B           
1 22830U 93061H   26079.17313160  .00000162  00000+0  75048-4 0  9996
2 22830  98.4896 147.8529 0009650 250.3812 109.6331 14.32866037695607
COSMOS 2278             
1 23087U 94023A   26079.20624664 -.00000188  00000+0 -73577-4 0  9993
2 23087  71.0540 153.0976 0008757 355.2860   4.8178 14.14378506646290
SL-16 R/B               
1 23088U 94023B   26079.10662315  .00000041  00000+0  45706-4 0  9997
2 23088  70.9994  49.0084 0005507 275.4509  84.5985 14.15010241647561
SL-16 R/B               
1 23343U 94074B   26079.06738574  .00000397  00000+0  59794-4 0  9999
2 23343  97.7094 109.4644 0006605 174.7822 210.9630 14.79419423688781
SL-16 R/B               
1 23405U 94077B   26079.15485002  .00000298  00000+0  17679-3 0  9991
2 23405  70.9848 330.4741 0002479 200.3574 159.7451 14.15566123617715
ARIANE 40+ R/B          
1 23561U 95021B   26079.17036735  .00000228  00000+0  86414-4 0  9998
2 23561  98.4478 150.5101 0007932 109.2400 305.3389 14.39779426620752
SL-16 R/B               
1 23705U 95058B   26079.16233635  .00000017  00000+0  32878-4 0  9996
2 23705  71.0221 158.2697 0010295 106.4757 253.7498 14.15500722569338
SL-16 R/B               
1 24298U 96051B   26079.15178468  .00000097  00000+0  79152-4 0  9993
2 24298  70.7597 153.0962 0014200 131.6009 228.6330 14.12418434523124
ORBVIEW 2 (SEASTAR)     
1 24883U 97037A   26079.01257443  .00000219  00000+0  92491-4 0  9991
2 24883  98.8585 243.5987 0002781  50.2536 309.8894 14.35501918509953
SL-16 R/B               
1 25400U 98043G   26078.83510877  .00000042  00000+0  36402-4 0  9991
2 25400  98.8272  32.2714 0009681 351.5109   8.5906 14.26051996440432
